OBJECT_NAME,OBJECT_ID,EPOCH,MEAN_MOTION,ECCENTRICITY,INCLINATION,RA_OF_ASC_NODE,ARG_OF_PERICENTER,MEAN_ANOMALY,EPHEMERIS_TYPE,CLASSIFICATION_TYPE,NORAD_CAT_ID,ELEMENT_SET_NO,REV_AT_EPOCH,BSTAR,MEAN_MOTION_DOT,MEAN_MOTION_DDOT
ORBCOMM FM06,1997-084G,2026-07-14T12:45:16.657056,14.47626387,.00014577,45.0138,281.0706,229.7599,144.8337,0,U,25118,999,49835,.17032982E-3,.488E-5,0
ORBCOMM FM04,1998-007C,2026-07-14T23:38:15.938880,14.35784297,.0041964,107.9633,226.6333,277.2607,82.3764,0,U,25159,999,48058,.16415E-3,.346E-5,0
ORBCOMM FM19,1998-046C,2026-07-15T03:13:10.262784,14.39541373,.0003239,44.9933,110.7126,62.2230,76.2921,0,U,25415,999,46080,.17731E-3,.415E-5,0
ORBCOMM FM20,1998-046D,2026-07-15T03:33:18.715392,14.38100222,.0001392,44.9933,118.8780,359.4024,0.6823,0,U,25416,999,46081,.14817E-3,.311E-5,0
ORBCOMM FM27,1998-053G,2026-07-14T09:34:43.518720,14.39184080,.00024139,45.0036,206.1010,288.3088,71.7498,0,U,25481,999,45415,.14597741E-3,.314E-5,0
ORBCOMM FM32,1999-065C,2026-07-13T23:37:08.724864,14.37167121,.00055655,45.0157,46.3955,186.3791,173.6987,0,U,25982,999,39094,.13828053E-3,.273E-5,0
ORBCOMM FM109,2014-040A,2026-07-14T08:32:45.359520,14.58872070,.00015319,47.0043,323.0332,319.6282,40.4490,0,U,40086,999,63831,.59754541E-4,.111E-5,0
ORBCOMM FM110,2015-081D,2026-07-15T01:05:53.085984,14.58917715,.0003599,47.0006,229.7163,222.3063,137.7545,0,U,41182,999,56169,.66035E-4,.141E-5,0
ORBCOMM FM118,2015-081E,2026-07-15T03:34:04.624032,14.58903820,.0002885,47.0025,229.5677,186.1442,173.9409,0,U,41183,999,56181,.45624E-4,.44E-6,0
ORBCOMM FM112,2015-081F,2026-07-14T12:52:18.000480,14.58938034,.00037551,46.9980,140.9155,325.1012,34.9627,0,U,41184,999,56294,.95890912E-4,.282E-5,0
ORBCOMM FM113,2015-081G,2026-07-15T04:46:12.087264,14.58882057,.000223,46.9999,138.1739,321.4660,38.6066,0,U,41185,999,56302,.59625E-4,.111E-5,0
ORBCOMM FM108,2015-081J,2026-07-15T00:34:14.458080,14.58910524,.0002658,47.0055,50.5822,321.5969,38.4727,0,U,41187,999,56414,.92802E-4,.268E-5,0
ORBCOMM FM117,2015-081K,2026-07-14T23:44:53.779776,14.58897499,.0003074,47.0018,49.3713,328.6670,31.4032,0,U,41188,999,56418,.88052E-4,.245E-5,0
ORBCOMM FM116,2015-081L,2026-07-15T04:12:09.211104,14.58905811,.0001538,47.0015,138.2828,229.7096,130.3655,0,U,41189,999,56302,.53674E-4,.83E-6,0
